ONEWEB-0534             
1 55797U 23029B   26175.19928100  .00000025  00000+0  30046-4 0  9993
2 55797  87.9188 273.0717 0001910 101.7299 258.4049 13.20772134162071
ONEWEB-0556             
1 55798U 23029C   26175.20600047  .00000010  00000+0 -61207-5 0  9992
2 55798  87.9182 273.0694 0001392  80.9877 279.1414 13.20774332162072
ONEWEB-0562             
1 55799U 23029D   26175.19254880  .00000058  00000+0  11031-3 0  9990
2 55799  87.9185 273.0532 0001995  76.1669 283.9686 13.20771129162077
ONEWEB-0563             
1 55800U 23029E   26175.03598523 -.00000018  00000+0 -76846-4 0  9995
2 55800  87.9185 273.1149 0001826 105.0438 255.0898 13.20772430162042
ONEWEB-0564             
1 55801U 23029F   26174.57471871 -.00000056  00000+0 -17021-3 0  9991
2 55801  87.9188 273.1804 0002085  89.3731 270.7642 13.20771537161993
ONEWEB-0638             
1 55802U 23029G   26175.01532236  .00000007  00000+0 -14758-4 0  9995
2 55802  87.8961 288.3902 0001646  85.9852 274.1466 13.14504220160297
ONEWEB-0639             
1 55803U 23029H   26174.77960149  .00000255  00000+0  60510-3 0  9996
2 55803  87.9172 303.6619 0001409 133.6193 226.5057 13.19729965159773
ONEWEB-0640             
1 55804U 23029J   26174.56812150 -.00000155  00000+0 -45139-3 0  9993
2 55804  87.8960 288.4704 0001278  92.3085 267.8191 13.14503003160258
ONEWEB-0641             
1 55805U 23029K   26175.30558697  .00000071  00000+0  14557-3 0  9995
2 55805  87.9184 303.5474 0001867 105.2681 254.8659 13.19725333159857
ONEWEB-0642             
1 55806U 23029L   26175.07340634  .00000089  00000+0  19095-3 0  9991
2 55806  87.9173 303.6049 0001913 125.7372 234.3939 13.19725570159814
ONEWEB-0643             
1 55807U 23029M   26175.07082460  .00000233  00000+0  59498-3 0  9994
2 55807  87.8959 288.3574 0002129 119.8685 240.2657 13.14503367160299
ONEWEB-0644             
1 55808U 23029N   26175.06866318  .00000141  00000+0  32030-3 0  9997
2 55808  87.9170 303.6066 0001874 111.2300 248.9033 13.19725728159810
ONEWEB-0645             
1 55809U 23029P   26175.09077577  .00000062  00000+0  12146-3 0  9990
2 55809  87.9176 303.5998 0001482 108.0063 252.1231 13.19724249159819
ONEWEB-0646             
1 55810U 23029Q   26175.10815526  .00000050  00000+0  91929-4 0  9992
2 55810  87.9178 303.5966 0001887 108.9328 251.2010 13.19725619159806
ONEWEB-0648             
1 55811U 23029R   26175.03909929 -.00000220  00000+0 -62811-3 0  9994
2 55811  87.8970 288.3381 0001439 127.4847 232.6413 13.14501253160298
ONEWEB-0649             
1 55812U 23029S   26175.05760242 -.00000006  00000+0 -47051-4 0  9992
2 55812  87.9173 303.6041 0001682 105.7199 254.4119 13.19725324159833
ONEWEB-0650             
1 55813U 23029T   26175.05287478 -.00000014  00000+0 -68096-4 0  9999
2 55813  87.9175 303.6078 0001849 119.6494 240.4824 13.19729469159802
ONEWEB-0652             
1 55814U 23029U   26174.56335507 -.00000104  00000+0 -31607-3 0  9999
2 55814  87.8968 288.4398 0002087  97.3936 262.7431 13.14501114160202
ONEWEB-0653             
1 55815U 23029V   26175.30867766  .00000233  00000+0  59336-3 0  9990
2 55815  87.8971 288.2892 0001910  99.1038 261.0308 13.14503957160337
ONEWEB-0654             
1 55816U 23029W   26175.07556415  .00000223  00000+0  56820-3 0  9995
2 55816  87.8968 288.3318 0002075  91.3897 268.7470 13.14504423160320
ONEWEB-0656             
1 55817U 23029X   26174.71948063 -.00000003  00000+0 -38139-4 0  9992
2 55817  87.9198 273.1282 0002224  89.8609 270.2779 13.20773897162016
ONEWEB-0657             
1 55818U 23029Y   26175.04813546  .00000008  00000+0 -11496-4 0  9998
2 55818  87.9174 303.6072 0002592  98.2743 261.8683 13.19725423159812
ONEWEB-0658             
1 55819U 23029Z   26175.11921340 -.00000054  00000+0 -16660-3 0  9998
2 55819  87.9184 303.5692 0001896 113.2297 246.9035 13.19724767159836
ONEWEB-0660             
1 55820U 23029AA  26175.05336636 -.00000009  00000+0 -59259-4 0  9993
2 55820  87.8976 288.3301 0001630 103.4119 256.7193 13.14504378160300
ONEWEB-0661             
1 55821U 23029AB  26174.70767799  .00000042  00000+0  80001-4 0  9997
2 55821  87.8959 288.4426 0001619  97.7404 262.3909 13.14503390160244
ONEWEB-0662             
1 55822U 23029AC  26175.04703379 -.00000150  00000+0 -43785-3 0  9999
2 55822  87.8953 288.3809 0001631 103.8550 256.2762 13.14502895160336
ONEWEB-0663             
1 55823U 23029AD  26175.20721238  .00000061  00000+0  11844-3 0  9992
2 55823  87.9198 273.1025 0001693 110.5309 249.6006 13.20869941162071
ONEWEB-0664             
1 55824U 23029AE  26174.70602773 -.00000003  00000+0 -39475-4 0  9998
2 55824  87.9185 273.1828 0001705  89.6413 270.4916 13.20770799162002
ONEWEB-0665             
1 55825U 23029AF  26174.78062289  .00000103  00000+0  24428-3 0  9999
2 55825  87.8961 288.4090 0001638 106.0396 254.0914 13.14503773160275
ONEWEB-0666             
1 55826U 23029AG  26175.30534446  .00000064  00000+0  12548-3 0  9994
2 55826  87.9186 273.0531 0002728  99.1550 260.9892 13.20771566162098
