OBJECT_NAME,OBJECT_ID,EPOCH,MEAN_MOTION,ECCENTRICITY,INCLINATION,RA_OF_ASC_NODE,ARG_OF_PERICENTER,MEAN_ANOMALY,EPHEMERIS_TYPE,CLASSIFICATION_TYPE,NORAD_CAT_ID,ELEMENT_SET_NO,REV_AT_EPOCH,BSTAR,MEAN_MOTION_DOT,MEAN_MOTION_DDOT
ONEWEB-0534,2023-029B,2026-06-24T04:46:57.878400,13.20772134,.00019104,87.9188,273.0717,101.7299,258.4049,0,U,55797,999,16207,.3004643E-4,.25E-6,0
ONEWEB-0556,2023-029C,2026-06-24T04:56:38.440608,13.20774332,.00013929,87.9182,273.0694,80.9877,279.1414,0,U,55798,999,16207,-.612071E-5,.1E-6,0
ONEWEB-0562,2023-029D,2026-06-24T04:37:16.216320,13.20771129,.00019958,87.9185,273.0532,76.1669,283.9686,0,U,55799,999,16207,.1103102E-3,.58E-6,0
ONEWEB-0563,2023-029E,2026-06-24T00:51:49.123872,13.20772430,.00018264,87.9185,273.1149,105.0438,255.0898,0,U,55800,999,16204,-.76846129E-4,-.18E-6,0
ONEWEB-0564,2023-029F,2026-06-23T13:47:35.696544,13.20771537,.00020854,87.9188,273.1804,89.3731,270.7642,0,U,55801,999,16199,-.17020641E-3,-.56E-6,0
ONEWEB-0638,2023-029G,2026-06-24T00:22:03.851904,13.14504220,.00016469,87.8961,288.3902,85.9852,274.1466,0,U,55802,999,16029,-.14758253E-4,.7E-7,0
ONEWEB-0639,2023-029H,2026-06-23T18:42:37.568736,13.19729965,.00014097,87.9172,303.6619,133.6193,226.5057,0,U,55803,999,15977,.60510436E-3,.255E-5,0
ONEWEB-0640,2023-029J,2026-06-23T13:38:05.697600,13.14503003,.00012786,87.8960,288.4704,92.3085,267.8191,0,U,55804,999,16025,-.45138937E-3,-.155E-5,0
ONEWEB-0641,2023-029K,2026-06-24T07:20:02.714208,13.19725333,.00018672,87.9184,303.5474,105.2681,254.8659,0,U,55805,999,15985,.1455659E-3,.71E-6,0
ONEWEB-0642,2023-029L,2026-06-24T01:45:42.307776,13.19725570,.00019134,87.9173,303.6049,125.7372,234.3939,0,U,55806,999,15981,.19095006E-3,.89E-6,0
ONEWEB-0643,2023-029M,2026-06-24T01:41:59.245440,13.14503367,.00021294,87.8959,288.3574,119.8685,240.2657,0,U,55807,999,16029,.59497655E-3,.233E-5,0
ONEWEB-0644,2023-029N,2026-06-24T01:38:52.498752,13.19725728,.00018745,87.9170,303.6066,111.2300,248.9033,0,U,55808,999,15981,.32029711E-3,.141E-5,0
ONEWEB-0645,2023-029P,2026-06-24T02:10:43.026528,13.19724249,.00014825,87.9176,303.5998,108.0063,252.1231,0,U,55809,999,15981,.12145734E-3,.62E-6,0
ONEWEB-0646,2023-029Q,2026-06-24T02:35:44.614464,13.19725619,.00018876,87.9178,303.5966,108.9328,251.2010,0,U,55810,999,15980,.91929415E-4,.5E-6,0
ONEWEB-0648,2023-029R,2026-06-24T00:56:18.178656,13.14501253,.00014392,87.8970,288.3381,127.4847,232.6413,0,U,55811,999,16029,-.6281122E-3,-.22E-5,0
ONEWEB-0649,2023-029S,2026-06-24T01:22:56.849088,13.19725324,.00016821,87.9173,303.6041,105.7199,254.4119,0,U,55812,999,15983,-.47050509E-4,-.6E-7,0
ONEWEB-0650,2023-029T,2026-06-24T01:16:08.380992,13.19729469,.00018492,87.9175,303.6078,119.6494,240.4824,0,U,55813,999,15980,-.68095742E-4,-.14E-6,0
ONEWEB-0652,2023-029U,2026-06-23T13:31:13.878048,13.14501114,.00020876,87.8968,288.4398,97.3936,262.7431,0,U,55814,999,16020,-.31607035E-3,-.104E-5,0
ONEWEB-0653,2023-029V,2026-06-24T07:24:29.749824,13.14503957,.00019107,87.8971,288.2892,99.1038,261.0308,0,U,55815,999,16033,.59335592E-3,.233E-5,0
ONEWEB-0654,2023-029W,2026-06-24T01:48:48.742560,13.14504423,.00020754,87.8968,288.3318,91.3897,268.7470,0,U,55816,999,16032,.56819519E-3,.223E-5,0
ONEWEB-0656,2023-029X,2026-06-23T17:16:03.126432,13.20773897,.00022243,87.9198,273.1282,89.8609,270.2779,0,U,55817,999,16201,-.38138743E-4,-.3E-7,0
ONEWEB-0657,2023-029Y,2026-06-24T01:09:18.903744,13.19725423,.00025925,87.9174,303.6072,98.2743,261.8683,0,U,55818,999,15981,-.11495824E-4,.8E-7,0
ONEWEB-0658,2023-029Z,2026-06-24T02:51:40.037760,13.19724767,.00018961,87.9184,303.5692,113.2297,246.9035,0,U,55819,999,15983,-.16660422E-3,-.54E-6,0
ONEWEB-0660,2023-029AA,2026-06-24T01:16:50.853504,13.14504378,.00016307,87.8976,288.3301,103.4119,256.7193,0,U,55820,999,16030,-.59258556E-4,-.9E-7,0
ONEWEB-0661,2023-029AB,2026-06-23T16:59:03.378336,13.14503390,.0001619,87.8959,288.4426,97.7404,262.3909,0,U,55821,999,16024,.80001375E-4,.42E-6,0
ONEWEB-0662,2023-029AC,2026-06-24T01:07:43.719456,13.14502895,.00016319,87.8953,288.3809,103.8550,256.2762,0,U,55822,999,16033,-.43784584E-3,-.15E-5,0
ONEWEB-0663,2023-029AD,2026-06-24T04:58:23.149632,13.20869941,.00016936,87.9198,273.1025,110.5309,249.6006,0,U,55823,999,16207,.11844163E-3,.61E-6,0
ONEWEB-0664,2023-029AE,2026-06-23T16:56:40.795872,13.20770799,.00017052,87.9185,273.1828,89.6413,270.4916,0,U,55824,999,16200,-.39474918E-4,-.3E-7,0
ONEWEB-0665,2023-029AF,2026-06-23T18:44:05.817696,13.14503773,.00016381,87.8961,288.4090,106.0396,254.0914,0,U,55825,999,16027,.24428222E-3,.103E-5,0
ONEWEB-0666,2023-029AG,2026-06-24T07:19:41.761344,13.20771566,.00027283,87.9186,273.0531,99.1550,260.9892,0,U,55826,999,16209,.1254755E-3,.64E-6,0
